ARIANE 40 R/B           
1 20443U 90005H   26062.69830414  .00000356  00000+0  12690-3 0  9992
2 20443  98.3096 123.5380 0009484 217.1526 142.9007 14.39865829891940
DELTA 2 R/B(1)          
1 20453U 90008B   26062.72676019  .00090081  00000+0  10838-2 0  9994
2 20453  35.6034 213.9608 0086795 203.5175 156.1578 15.55053481925202
COSMOS 2058             
1 20465U 90010A   26062.82162537  .00005669  00000+0  33510-3 0  9997
2 20465  82.4666  53.2088 0009794   2.8143 357.3140 15.11257293941355
SL-14 R/B               
1 20466U 90010B   26062.68414289  .00000520  00000+0  60144-4 0  9991
2 20466  82.4992 273.0315 0018918 323.3212  36.6707 14.83562870927593
SL-14 R/B               
1 20511U 90018B   26062.56118256  .00000689  00000+0  83407-4 0  9995
2 20511  82.5192 228.8183 0017592 110.6509 249.6593 14.82136954921672
HST                     
1 20580U 90037B   26062.41753730  .00009009  00000+0  29940-3 0  9994
2 20580  28.4702  82.7831 0001695  63.3001 296.7768 15.29363841772354
SL-16 R/B               
1 20625U 90046B   26062.75908219 -.00000183  00000+0 -69916-4 0  9999
2 20625  71.0001 310.3701 0016141 307.5737  52.3919 14.15014558847558
COSMOS 2084             
1 20663U 90055A   26062.21324534  .00003603  00000+0  26164-3 0  9999
2 20663  62.7926 357.6650 0018108 188.5844 171.4949 15.05602026935345
SL-6 R/B(2)             
1 20666U 90055D   26062.78560876  .00002679  00000+0  20860-3 0  9994
2 20666  62.7819 273.9292 0023842 345.5629  14.4786 15.03560947937304
SL-8 R/B                
1 20775U 90078B   26062.52749292  .00018627  00000+0  54752-3 0  9990
2 20775  82.8989 256.8532 0363742  34.7004 327.7365 14.88816306808386
SL-8 R/B                
1 21088U 91006B   26062.75064876  .00000062  00000+0  46936-4 0  9993
2 21088  82.9464 174.4607 0023381  54.3401  55.7658 13.77493395763257
OKEAN-3                 
1 21397U 91039A   26062.76081047  .00004222  00000+0  29702-3 0  9995
2 21397  82.5199 342.5859 0014304 359.7728   0.3490 15.04753179864148
COSMOS 2151             
1 21422U 91042A   26062.74666000  .00002440  00000+0  19337-3 0  9997
2 21422  82.4930  89.4105 0014137  81.2901 278.9924 15.00077480862305
SL-14 R/B               
1 21423U 91042B   26062.61287917  .00000640  00000+0  78027-4 0  9992
2 21423  82.4911 225.8810 0015601 260.3492  99.5960 14.81822110852173
ERS-1                   
1 21574U 91050A   26062.64986236  .00000411  00000+0  14604-3 0  9997
2 21574  98.7885  80.7325 0031298 218.6202 141.2746 14.39443809814862
ARIANE 40 R/B           
1 21610U 91050F   26062.71518264  .00000399  00000+0  13200-3 0  9994
2 21610  98.2025 115.1756 0004363  94.1843 265.9846 14.42888539818132
INTERCOSMOS 25          
1 21819U 91086A   26062.71372772  .00001650  00000+0  31675-3 0  9993
2 21819  82.6063 313.6198 1487059 129.8064 244.3760 12.11980640495964
SL-8 R/B                
1 21876U 92008B   26062.68757398  .00000007  00000+0 -89890-5 0  9998
2 21876  82.9227 272.2443 0035249 149.6880 277.7695 13.75969819708599
SL-8 R/B                
1 21938U 92020B   26062.73729399  .00000094  00000+0  82038-4 0  9998
2 21938  82.9340 158.1797 0027904 316.1037 152.9758 13.75548671700317
USA 81                  
1 21949U 92023A   26062.72089490  .00000237  00000+0  80409-4 0  9992
2 21949  85.0096 134.8842 0002605  82.2583 277.8905 14.32365688 93934
COSMOS 2219             
1 22219U 92076A   26062.36678682  .00000301  00000+0  18266-3 0  9991
2 22219  71.0618  31.2845 0019333 215.5019 144.4818 14.14089002717482
SL-16 R/B               
1 22220U 92076B   26062.77460637  .00000046  00000+0  46882-4 0  9999
2 22220  70.9999 200.8321 0010607 107.3533 356.6514 14.16859992720996
COSMOS 2221             
1 22236U 92080A   26062.68518736  .00002269  00000+0  19891-3 0  9993
2 22236  82.5018 284.8336 0013509 208.1164 151.9330 14.96174039779891
SL-16 R/B               
1 22285U 92093B   26062.80320972 -.00000143  00000+0 -48818-4 0  9991
2 22285  71.0238  16.6219 0006302 299.9749  60.0748 14.15449511712322
COSMOS 2228             
1 22286U 92094A   26062.77235358  .00003396  00000+0  29107-3 0  9992
2 22286  82.5145 242.9772 0017181 325.7821  34.2293 14.97154579775178
SL-16 R/B               
1 22566U 93016B   26062.70170073  .00000322  00000+0  18988-3 0  9994
2 22566  71.0058 227.7577 0011371 322.4959  37.5370 14.15305278701322
COSMOS 2242             
1 22626U 93024A   26062.68513548  .00002150  00000+0  18658-3 0  9990
2 22626  82.5156 272.4617 0015592 330.3518  29.6819 14.96519769779499
SL-16 R/B               
1 22803U 93059B   26062.83040627  .00000021  00000+0  34041-4 0  9995
2 22803  70.9920  23.4812 0018796 224.8484 135.1121 14.17232219678701
ARIANE 40 R/B           
1 22830U 93061H   26062.69314522  .00000270  00000+0  11461-3 0  9996
2 22830  98.4930 131.6990 0009648 304.9488  55.0789 14.32857309693242
COSMOS 2278             
1 23087U 94023A   26062.79837317  .00000316  00000+0  18962-3 0  9997
2 23087  71.0542 187.4212 0007656  25.2253 334.9242 14.14375747643978
SL-16 R/B               
1 23088U 94023B   26062.49402748 -.00000094  00000+0 -23975-4 0  9997
2 23088  70.9987  83.8998 0005605 291.6296  68.4229 14.15013435645215
SL-16 R/B               
1 23343U 94074B   26062.64830262  .00000663  00000+0  95484-4 0  9994
2 23343  97.7117  93.7106 0005388 233.8032 239.3935 14.79399863686351
SL-16 R/B               
1 23405U 94077B   26062.26606304 -.00000246  00000+0 -10114-3 0  9997
2 23405  70.9851   6.0016 0003451 221.0572 139.0291 14.15562406615327
ARIANE 40+ R/B          
1 23561U 95021B   26062.78059568  .00000402  00000+0  14195-3 0  9996
2 23561  98.4509 134.3430 0007385 152.3208 320.1378 14.39767523618394
SL-16 R/B               
1 23705U 95058B   26062.69675183 -.00000012  00000+0  17964-4 0  9999
2 23705  71.0210 192.8358 0011013 136.3924 223.8071 14.15492747567005
SL-16 R/B               
1 24298U 96051B   26062.72126563  .00000086  00000+0  73235-4 0  9991
2 24298  70.7596 187.8705 0015617 156.8881 203.2944 14.12413785520809
ORBVIEW 2 (SEASTAR)     
1 24883U 97037A   26062.42350352  .00000436  00000+0  16786-3 0  9994
2 24883  98.8555 226.5696 0003184  84.6018 275.5530 14.35489418507574
SL-16 R/B               
1 25400U 98043G   26062.76771221  .00000078  00000+0  51592-4 0  9994
2 25400  98.8245  16.0896 0010488  36.6791 323.5105 14.26048137438147
SL-16 R/B               
1 25407U 98045B   26062.78126200 -.00000206  00000+0 -80139-4 0  9990
2 25407  71.0112 193.9979 0006395  17.0539 343.0798 14.16189420426267
ISS (ZARYA)             
1 25544U 98067A   26062.76956237  .00010027  00000+0  19358-3 0  9999
2 25544  51.6317 101.6250 0008204 153.6152 206.5256 15.48425902555413
CZ-4B R/B               
1 25732U 99025C   26062.74920984  .00000081  00000+0  59787-4 0  9991
2 25732  98.6639 107.1713 0037082   3.7679 107.5443 14.18263948387327
OKEAN-O                 
1 25860U 99039A   26062.70373512  .00000895  00000+0  12426-3 0  9994
2 25860  97.9454 122.6557 0001442  71.1339 289.0030 14.80324289433502
SL-16 R/B               
1 25861U 99039B   26062.75677063  .00000796  00000+0  10777-3 0  9995
2 25861  97.9978 121.8620 0013446 277.3941  82.5744 14.81722059435982
DELTA 2 R/B             
1 25876U 99041E   26062.07041024  .00001695  00000+0  31034-3 0  9999
2 25876  51.7651 327.7179 0502356 328.8923  28.3138 14.11813362362092
HELIOS 1B               
1 25977U 99064A   26062.72775808  .00002724  00000+0  30562-3 0  9991
2 25977  98.1703 324.7958 0002502  83.0992 277.0507 14.87668345684376
TERRA                   
1 25994U 99068A   26062.75824642  .00000583  00000+0  12797-3 0  9999
2 25994  97.9606 116.4193 0002299 165.9720 262.2336 14.61007359394214
SL-16 R/B               
1 26070U 00006B   26062.51254993  .00000233  00000+0  14259-3 0  9996
2 26070  71.0014 110.8267 0017215 198.7334 161.3158 14.15824433347684
TITAN 4B R/B            
1 26474U 00047B   26062.79945815  .00005677  00000+0  35565-3 0  9999
2 26474  67.9885  57.0722 0038002  42.3798 318.0275 15.09493071392028
ENVISAT                 
1 27386U 02009A   26062.83543984  .00000174  00000+0  70207-4 0  9998
2 27386  98.3719  16.5725 0001333  84.6244 308.1164 14.39034374258331
IDEFIX & ARIANE 42P R/B 
1 27422U 02021B   26062.76241660  .00000378  00000+0  16035-3 0  9995
2 27422  98.5864   1.4397 0011238 200.2367 159.8372 14.31021203243177
AQUA                    
1 27424U 02022A   26062.86112389  .00001431  00000+0  29557-3 0  9998
2 27424  98.4164  30.1204 0000651  58.3918 331.5840 14.61960134267889
CZ-4B R/B               
1 27432U 02024C   26062.71657602  .00000064  00000+0  55781-4 0  9995
2 27432  98.8852 116.1530 0050742  40.9916  70.6976 14.14546347228392
MIDORI II (ADEOS-II)    
1 27597U 02056A   26062.78328734  .00000396  00000+0  17365-3 0  9993
2 27597  98.7759  21.2205 0001800  51.3292 308.8050 14.29279628209454
H-2A R/B                
1 27601U 02056E   26062.83729634  .00000353  00000+0  13822-3 0  9996
2 27601  98.3192  23.4260 0070135 178.0645 202.1846 14.33756197213278
CZ-4B R/B               
1 28059U 03049C   26062.60701063  .00000550  00000+0  13780-3 0  9990
2 28059  98.6873  57.2734 0047056 249.8633 109.7497 14.55013265185713
CZ-2C R/B               
1 28222U 04012C   26062.72326042  .00068801  00000+0  73196-3 0  9996
2 28222  97.7246 127.4537 0013326 333.6742  26.3837 15.63693410203344
SL-16 R/B               
1 28353U 04021B   26062.72929987 -.00000132  00000+0 -43840-4 0  9997
2 28353  70.9992 245.0015 0003726  21.4562 338.6716 14.14599617121997
CZ-4B R/B               
1 28415U 04035C   26062.62659054  .00010935  00000+0  38586-3 0  9995
2 28415  97.3505  96.9417 0031634 353.5115   6.5711 15.28932257178984
CZ-2C R/B               
1 28480U 04046B   26062.73581576  .00000155  00000+0  72528-4 0  9992
2 28480  98.1987 338.0901 0139523 172.0058 188.3394 14.26989818107657
